{"fetched_at":"2026-03-29T16:36:15Z","count":15609,"tles":[{"name":"STARLINK-5929","line1":"1 55959U 23037AX  26087.78401026  .00000075  00000+0  14088-4 0  9995","line2":"2 55959  70.0007 216.2978 0003098 270.3883  89.6922 14.98333284167336","category":"Starlink"}]}