{
  "norad_id": 55959,
  "name": "STARLINK-5929",
  "history": [
    {
      "epoch": "2026-03-28T18:48:58.486464Z",
      "apogee_km": 574.1989715771379,
      "perigee_km": 569.8924993505889,
      "latitude_deg": 9.347302734679276e-05,
      "longitude_deg": 107.85464857890946,
      "height_km": 574.4587370159501,
      "semi_major_axis_km": 6950.182735463863,
      "eccentricity": 0.00030981,
      "inclination_deg": 70.0007,
      "raan_deg": 216.2978,
      "arg_perigee_deg": 270.3883,
      "mean_anomaly_deg": 89.6922,
      "mean_motion_rev_day": 14.98333284
    }
  ]
}